{
  "type": "FeatureCollection",
  "features": [
    {
      "type": "Feature",
      "properties": {
        "norad_id": 22490,
        "name": "SCD 1",
        "group": "resource",
        "lat": -1.0503116410815208,
        "lon": 58.494471783384554,
        "alt_km": 761.2179035821473,
        "timestamp": "2025-12-19T14:48:35.900700+00:00",
        "meta_object_name": "SCD 1",
        "meta_object_id": "1993-009B",
        "meta_epoch": "2025-12-18T10:33:14.558976",
        "meta_mean_motion": 14.46002995,
        "meta_eccentricity": 0.00420424,
        "meta_inclination": 24.9686,
        "meta_ra_of_asc_node": 243.5007,
        "meta_arg_of_pericenter": 25.3935,
        "meta_mean_anomaly": 135.5853,
        "meta_ephemeris_type": 0,
        "meta_classification_type": "U",
        "meta_norad_cat_id": 22490,
        "meta_element_set_no": 999,
        "meta_rev_at_epoch": 73492,
        "meta_bstar": 7.3091886e-05,
        "meta_mean_motion_dot": 4.52e-06,
        "meta_mean_motion_ddot": 0,
        "tle_line1": "1 22490U 93009B   25352.43975184  .00000452  00000+0  73092-4 0  9991",
        "tle_line2": "2 22490  24.9686 243.5007 0042042  25.3935 135.5853 14.46002995734929"
      },
      "geometry": {
        "type": "Point",
        "coordinates": [
          58.494471783384554,
          -1.0503116410815208
        ]
      }
    },
    {
      "type": "Feature",
      "properties": {
        "norad_id": 25397,
        "name": "TECHSAT 1B (GO-32)",
        "group": "resource",
        "lat": 44.51333423125769,
        "lon": 165.94445120217352,
        "alt_km": 806.7129236526225,
        "timestamp": "2025-12-19T14:48:35.900750+00:00",
        "meta_object_name": "TECHSAT 1B (GO-32)",
        "meta_object_id": "1998-043D",
        "meta_epoch": "2025-12-19T05:45:01.522944",
        "meta_mean_motion": 14.24378852,
        "meta_eccentricity": 0.00018669,
        "meta_inclination": 98.9925,
        "meta_ra_of_asc_node": 336.6018,
        "meta_arg_of_pericenter": 47.1475,
        "meta_mean_anomaly": 312.9859,
        "meta_ephemeris_type": 0,
        "meta_classification_type": "U",
        "meta_norad_cat_id": 25397,
        "meta_element_set_no": 999,
        "meta_rev_at_epoch": 42571,
        "meta_bstar": 4.5722353e-05,
        "meta_mean_motion_dot": 5.9e-07,
        "meta_mean_motion_ddot": 0,
        "tle_line1": "1 25397U 98043D   25353.23960096  .00000059  00000+0  45722-4 0  9990",
        "tle_line2": "2 25397  98.9925 336.6018 0001866  47.1475 312.9859 14.24378852425716"
      },
      "geometry": {
        "type": "Point",
        "coordinates": [
          165.94445120217352,
          44.51333423125769
        ]
      }
    },
    {
      "type": "Feature",
      "properties": {
        "norad_id": 25504,
        "name": "SCD 2",
        "group": "resource",
        "lat": -8.273696431149025,
        "lon": -62.32041357031396,
        "alt_km": 751.5987434424387,
        "timestamp": "2025-12-19T14:48:35.900768+00:00",
        "meta_object_name": "SCD 2",
        "meta_object_id": "1998-060A",
        "meta_epoch": "2025-12-18T15:14:50.678592",
        "meta_mean_motion": 14.45426465,
        "meta_eccentricity": 0.00168952,
        "meta_inclination": 24.9943,
        "meta_ra_of_asc_node": 105.5425,
        "meta_arg_of_pericenter": 16.0546,
        "meta_mean_anomaly": 104.7334,
        "meta_ephemeris_type": 0,
        "meta_classification_type": "U",
        "meta_norad_cat_id": 25504,
        "meta_element_set_no": 999,
        "meta_rev_at_epoch": 43417,
        "meta_bstar": 5.2682688e-05,
        "meta_mean_motion_dot": 3.7e-06,
        "meta_mean_motion_ddot": 0,
        "tle_line1": "1 25504U 98060A   25352.63530878  .00000370  00000+0  52683-4 0  9993",
        "tle_line2": "2 25504  24.9943 105.5425 0016895  16.0546 104.7334 14.45426465434174"
      },
      "geometry": {
        "type": "Point",
        "coordinates": [
          -62.32041357031396,
          -8.273696431149025
        ]
      }
    },
    {
      "type": "Feature",
      "properties": {
        "norad_id": 25757,
        "name": "DLR-TUBSAT",
        "group": "resource",
        "lat": -34.935999845994175,
        "lon": -15.547846473708068,
        "alt_km": 733.1618207778201,
        "timestamp": "2025-12-19T14:48:35.900782+00:00",
        "meta_object_name": "DLR-TUBSAT",
        "meta_object_id": "1999-029B",
        "meta_epoch": "2025-12-17T13:22:10.787520",
        "meta_mean_motion": 14.52359578,
        "meta_eccentricity": 0.00141996,
        "meta_inclination": 98.6566,
        "meta_ra_of_asc_node": 336.2196,
        "meta_arg_of_pericenter": 177.8976,
        "meta_mean_anomaly": 182.2281,
        "meta_ephemeris_type": 0,
        "meta_classification_type": "U",
        "meta_norad_cat_id": 25757,
        "meta_element_set_no": 999,
        "meta_rev_at_epoch": 40688,
        "meta_bstar": 3.7650132e-05,
        "meta_mean_motion_dot": 1.05e-06,
        "meta_mean_motion_ddot": 0,
        "tle_line1": "1 25757U 99029B   25351.55706930  .00000105  00000+0  37650-4 0  9996",
        "tle_line2": "2 25757  98.6566 336.2196 0014199 177.8976 182.2281 14.52359578406886"
      },
      "geometry": {
        "type": "Point",
        "coordinates": [
          -15.547846473708068,
          -34.935999845994175
        ]
      }
    },
    {
      "type": "Feature",
      "properties": {
        "norad_id": 25994,
        "name": "TERRA",
        "group": "resource",
        "lat": -57.924125374361715,
        "lon": -147.8752417198146,
        "alt_km": 699.6746810578734,
        "timestamp": "2025-12-19T14:48:35.900793+00:00",
        "meta_object_name": "TERRA",
        "meta_object_id": "1999-068A",
        "meta_epoch": "2025-12-19T05:49:56.963424",
        "meta_mean_motion": 14.60908878,
        "meta_eccentricity": 0.00035537,
        "meta_inclination": 97.974,
        "meta_ra_of_asc_node": 44.6886,
        "meta_arg_of_pericenter": 81.6944,
        "meta_mean_anomaly": 350.9345,
        "meta_ephemeris_type": 0,
        "meta_classification_type": "U",
        "meta_norad_cat_id": 25994,
        "meta_element_set_no": 999,
        "meta_rev_at_epoch": 38333,
        "meta_bstar": 8.1391059e-05,
        "meta_mean_motion_dot": 3.54e-06,
        "meta_mean_motion_ddot": 0,
        "tle_line1": "1 25994U 99068A   25353.24302041  .00000354  00000+0  81391-4 0  9992",
        "tle_line2": "2 25994  97.9740  44.6886 0003553  81.6944 350.9345 14.60908878383331"
      },
      "geometry": {
        "type": "Point",
        "coordinates": [
          -147.8752417198146,
          -57.924125374361715
        ]
      }
    },
    {
      "type": "Feature",
      "properties": {
        "norad_id": 27004,
        "name": "MAROC-TUBSAT",
        "group": "resource",
        "lat": 32.509244662850406,
        "lon": -11.499553756529721,
        "alt_km": 997.7996023258675,
        "timestamp": "2025-12-19T14:48:35.900805+00:00",
        "meta_object_name": "MAROC-TUBSAT",
        "meta_object_id": "2001-056D",
        "meta_epoch": "2025-12-19T06:12:09.864864",
        "meta_mean_motion": 13.70253218,
        "meta_eccentricity": 0.00191618,
        "meta_inclination": 99.7914,
        "meta_ra_of_asc_node": 161.8176,
        "meta_arg_of_pericenter": 242.7896,
        "meta_mean_anomaly": 296.0924,
        "meta_ephemeris_type": 0,
        "meta_classification_type": "U",
        "meta_norad_cat_id": 27004,
        "meta_element_set_no": 999,
        "meta_rev_at_epoch": 20154,
        "meta_bstar": 2.3298821e-05,
        "meta_mean_motion_dot": -2.6e-07,
        "meta_mean_motion_ddot": 0,
        "tle_line1": "1 27004U 01056D   25353.25844751 -.00000026  00000+0  23299-4 0  9996",
        "tle_line2": "2 27004  99.7914 161.8176 0019161 242.7896 296.0924 13.70253218201546"
      },
      "geometry": {
        "type": "Point",
        "coordinates": [
          -11.499553756529721,
          32.509244662850406
        ]
      }
    },
    {
      "type": "Feature",
      "properties": {
        "norad_id": 27424,
        "name": "AQUA",
        "group": "resource",
        "lat": 42.72542897454195,
        "lon": 142.45611599466747,
        "alt_km": 682.9605715316775,
        "timestamp": "2025-12-19T14:48:35.900817+00:00",
        "meta_object_name": "AQUA",
        "meta_object_id": "2002-022A",
        "meta_epoch": "2025-12-18T00:44:29.182848",
        "meta_mean_motion": 14.61821302,
        "meta_eccentricity": 0.00012878,
        "meta_inclination": 98.4043,
        "meta_ra_of_asc_node": 312.9961,
        "meta_arg_of_pericenter": 113.4651,
        "meta_mean_anomaly": 320.6588,
        "meta_ephemeris_type": 0,
        "meta_classification_type": "U",
        "meta_norad_cat_id": 27424,
        "meta_element_set_no": 999,
        "meta_rev_at_epoch": 25680,
        "meta_bstar": 0.00017905095,
        "meta_mean_motion_dot": 8.45e-06,
        "meta_mean_motion_ddot": 0,
        "tle_line1": "1 27424U 02022A   25352.03089332  .00000845  00000+0  17905-3 0  9991",
        "tle_line2": "2 27424  98.4043 312.9961 0001287 113.4651 320.6588 14.61821302256800"
      },
      "geometry": {
        "type": "Point",
        "coordinates": [
          142.45611599466747,
          42.72542897454195
        ]
      }
    }
  ]
}